KUIPER-00044            
1 64505U 25134F   25354.06491108  .00002750  00000+0  38988-3 0  9995
2 64505  51.8986 238.6951 0011792  13.1359 346.9909 14.79900798 28098
KUIPER-00046            
1 64506U 25134G   25354.39456914  .00002858  00000+0  39661-3 0  9996
2 64506  51.8987 233.5770 0012867  23.4231 336.7315 14.80685245 28198
KUIPER-00047            
1 64507U 25134H   25354.83698390  .00002072  00000+0  28006-3 0  9991
2 64507  51.8967 203.1622 0009001  42.0614 318.1039 14.83024557 28658
KUIPER-00048            
1 64508U 25134J   25354.84174573 -.00001489  00000+0 -16620-3 0  9997
2 64508  51.8985 204.2506 0002759 148.6361 211.4766 14.79962241 28644
KUIPER-00049            
1 64509U 25134K   25354.62404189  .00002134  00000+0  30884-3 0  9997
2 64509  51.8986 218.6831 0002903  37.1489 322.9674 14.79944856 28424
KUIPER-00050            
1 64510U 25134L   25354.32310098  .00003090  00000+0  28972-3 0  9998
2 64510  51.8884 212.5792 0004965  61.4463 298.7006 14.96737635 28483
KUIPER-00051            
1 64511U 25134M   25354.62675042  .00002336  00000+0  33580-3 0  9998
2 64511  51.9017 216.2391 0003009  41.4682 318.6509 14.79882653 28457
KUIPER-00052            
1 64512U 25134N   25354.70971340  .00205437  00000+0  14319-2 0  9993
2 64512  51.8602 154.1347 0002466 124.1209 236.0027 15.73176537 29314
